[{"OBJECT_NAME":"OTTER","OBJECT_ID":"2025-009Q","EPOCH":"2026-03-09T17:21:07.902432","MEAN_MOTION":15.27809545,"ECCENTRICITY":0.00035728,"INCLINATION":97.4065,"RA_OF_ASC_NODE":151.3812,"ARG_OF_PERICENTER":310.771,"MEAN_ANOMALY":49.3219,"EPHEMERIS_TYPE":0,"CLASSIFICATION_TYPE":"U","NORAD_CAT_ID":62623,"ELEMENT_SET_NO":999,"REV_AT_EPOCH":6372,"BSTAR":0.00045151206,"MEAN_MOTION_DOT":0.00012198,"MEAN_MOTION_DDOT":0},{"OBJECT_NAME":"STARLINK-33680","OBJECT_ID":"2025-053Y","EPOCH":"2026-03-09T12:51:37.747584","MEAN_MOTION":15.27599733,"ECCENTRICITY":0.00010141,"INCLINATION":43.0018,"RA_OF_ASC_NODE":242.3219,"ARG_OF_PERICENTER":208.3718,"MEAN_ANOMALY":151.7079,"EPHEMERIS_TYPE":0,"CLASSIFICATION_TYPE":"U","NORAD_CAT_ID":63287,"ELEMENT_SET_NO":999,"REV_AT_EPOCH":5622,"BSTAR":0.00098198705,"MEAN_MOTION_DOT":0.00026875,"MEAN_MOTION_DDOT":0}]
